[
    {
        "Altitude(m)": 607886.6660638349,
        "Argument of Periapsis(deg)": 0.0,
        "Eccentricity": 0.0,
        "Inclination(deg)": 60.0,
        "Latitude(deg)": 40.99837489612828,
        "Longitude(deg)": -100.02702784905566,
        "Mean Anomaly(deg)": -310.9091,
        "RAAN(deg)": 330.0,
        "Satellite Name": "Test1 1455",
        "Satellite Number": 1455,
        "Semi-Major Axis(m)": 6980739.136638005,
        "Time(s)": 0
    },
    {
        "Altitude(m)": 607987.5800791825,
        "Argument of Periapsis(deg)": 0.00010418945913296404,
        "Eccentricity": 0.0,
        "Inclination(deg)": 60.0,
        "Latitude(deg)": 41.463465057136695,
        "Longitude(deg)": -99.52280063013279,
        "Mean Anomaly(deg)": -310.28899385453815,
        "RAAN(deg)": 329.9995799508602,
        "Satellite Name": "Test1 1455",
        "Satellite Number": 1455,
        "Semi-Major Axis(m)": 6980739.136638005,
        "Time(s)": 10
    }
]